{"type": "FeatureCollection", "features": [ {"type": "Feature", "properties": {"norad_id": 66837, "name": "STARLINK-35729", "group": "last-30-days", "lat": 69.30535203041418, "lon": -72.5952204358529, "alt_km": 392.4639685495049, "timestamp": "2025-12-18T17:50:13.700786+00:00", "meta": {"OBJECT_NAME": "STARLINK-35729", "OBJECT_ID": "2025-280S", "EPOCH": "2025-12-18T06:00:02.999808", "MEAN_MOTION": 15.58763717, "ECCENTRICITY": 0.00032826, "INCLINATION": 70.007, "RA_OF_ASC_NODE": 183.3053, "ARG_OF_PERICENTER": 271.1515, "MEAN_ANOMALY": 299.5698, "EPHEMERIS_TYPE": 0, "CLASSIFICATION_TYPE": "U", "NORAD_CAT_ID": 66837, "ELEMENT_SET_NO": 999, "REV_AT_EPOCH": 378, "BSTAR": -0.030257619, "MEAN_MOTION_DOT": -0.02050376, "MEAN_MOTION_DDOT": 0}, "tle": {"line1": "1 66837U 25280S   25352.25003472 -.02050376  00000+0 -30258-1 0  9990", "line2": "2 66837  70.0070 183.3053 0003282 271.1515 299.5698 15.58763717  3782"}}, "geometry": {"type": "Point", "coordinates": [-72.5952204358529, 69.30535203041418]}}, {"type": "Feature", "properties": {"norad_id": 66838, "name": "STARLINK-35886", "group": "last-30-days", "lat": 68.04359860655413, "lon": -62.634460027617926, "alt_km": 392.4999986745561, "timestamp": "2025-12-18T17:50:13.700796+00:00", "meta": {"OBJECT_NAME": "STARLINK-35886", "OBJECT_ID": "2025-280T", "EPOCH": "2025-12-18T06:00:02.999808", "MEAN_MOTION": 15.5876318, "ECCENTRICITY": 0.00032461, "INCLINATION": 70.0069, "RA_OF_ASC_NODE": 183.3005, "ARG_OF_PERICENTER": 267.3788, "MEAN_ANOMALY": 307.1733, "EPHEMERIS_TYPE": 0, "CLASSIFICATION_TYPE": "U", "NORAD_CAT_ID": 66838, "ELEMENT_SET_NO": 999, "REV_AT_EPOCH": 378, "BSTAR": -0.030256033, "MEAN_MOTION_DOT": -0.02050211, "MEAN_MOTION_DDOT": 0}, "tle": {"line1": "1 66838U 25280T   25352.25003472 -.02050211  00000+0 -30256-1 0  9997", "line2": "2 66838  70.0069 183.3005 0003246 267.3788 307.1733 15.58763180  3787"}}, "geometry": {"type": "Point", "coordinates": [-62.634460027617926, 68.04359860655413]}}, {"type": "Feature", "properties": {"norad_id": 66839, "name": "STARLINK-35717", "group": "last-30-days", "lat": 68.74813078992841, "lon": -67.47701733959605, "alt_km": 392.63600185182986, "timestamp": "2025-12-18T17:50:13.700806+00:00", "meta": {"OBJECT_NAME": "STARLINK-35717", "OBJECT_ID": "2025-280U", "EPOCH": "2025-12-18T06:00:02.999808", "MEAN_MOTION": 15.58761213, "ECCENTRICITY": 0.00034734, "INCLINATION": 70.0069, "RA_OF_ASC_NODE": 183.3028, "ARG_OF_PERICENTER": 270.181, "MEAN_ANOMALY": 302.4574, "EPHEMERIS_TYPE": 0, "CLASSIFICATION_TYPE": "U", "NORAD_CAT_ID": 66839, "ELEMENT_SET_NO": 999, "REV_AT_EPOCH": 378, "BSTAR": -0.03024542, "MEAN_MOTION_DOT": -0.02049662, "MEAN_MOTION_DDOT": 0}, "tle": {"line1": "1 66839U 25280U   25352.25003472 -.02049662  00000+0 -30245-1 0  9994", "line2": "2 66839  70.0069 183.3028 0003473 270.1810 302.4574 15.58761213  3789"}}, "geometry": {"type": "Point", "coordinates": [-67.47701733959605, 68.74813078992841]}}, {"type": "Feature", "properties": {"norad_id": 66840, "name": "STARLINK-35837", "group": "last-30-days", "lat": 67.2060729869582, "lon": -58.10505330789585, "alt_km": 392.59233671462243, "timestamp": "2025-12-18T17:50:13.700818+00:00", "meta": {"OBJECT_NAME": "STARLINK-35837", "OBJECT_ID": "2025-280V", "EPOCH": "2025-12-18T06:00:02.999808", "MEAN_MOTION": 15.58761726, "ECCENTRICITY": 0.0003284, "INCLINATION": 70.0069, "RA_OF_ASC_NODE": 183.2988, "ARG_OF_PERICENTER": 267.4801, "MEAN_ANOMALY": 308.9901, "EPHEMERIS_TYPE": 0, "CLASSIFICATION_TYPE": "U", "NORAD_CAT_ID": 66840, "ELEMENT_SET_NO": 999, "REV_AT_EPOCH": 378, "BSTAR": -0.030274333, "MEAN_MOTION_DOT": -0.0205123, "MEAN_MOTION_DDOT": 0}, "tle": {"line1": "1 66840U 25280V   25352.25003472 -.02051230  00000+0 -30274-1 0  9992", "line2": "2 66840  70.0069 183.2988 0003284 267.4801 308.9901 15.58761726  3788"}}, "geometry": {"type": "Point", "coordinates": [-58.10505330789585, 67.2060729869582]}}, {"type": "Feature", "properties": {"norad_id": 66841, "name": "STARLINK-35715", "group": "last-30-days", "lat": 66.22755353332069, "lon": -53.85222993536591, "alt_km": 392.6270730404294, "timestamp": "2025-12-18T17:50:13.700828+00:00", "meta": {"OBJECT_NAME": "STARLINK-35715", "OBJECT_ID": "2025-280W", "EPOCH": "2025-12-18T06:00:02.999808", "MEAN_MOTION": 15.58733954, "ECCENTRICITY": 0.00033178, "INCLINATION": 69.999, "RA_OF_ASC_NODE": 183.2948, "ARG_OF_PERICENTER": 273.6324, "MEAN_ANOMALY": 304.7626, "EPHEMERIS_TYPE": 0, "CLASSIFICATION_TYPE": "U", "NORAD_CAT_ID": 66841, "ELEMENT_SET_NO": 999, "REV_AT_EPOCH": 378, "BSTAR": -0.029319265, "MEAN_MOTION_DOT": -0.01992669, "MEAN_MOTION_DDOT": 0}, "tle": {"line1": "1 66841U 25280W   25352.25003472 -.01992669  00000+0 -29319-1 0  9990", "line2": "2 66841  69.9990 183.2948 0003317 273.6324 304.7626 15.58733954  3781"}}, "geometry": {"type": "Point", "coordinates": [-53.85222993536591, 66.22755353332069]}}, {"type": "Feature", "properties": {"norad_id": 66842, "name": "STARLINK-35769", "group": "last-30-days", "lat": 65.1638422210037, "lon": -49.97603924237646, "alt_km": 392.59712945250703, "timestamp": "2025-12-18T17:50:13.700840+00:00", "meta": {"OBJECT_NAME": "STARLINK-35769", "OBJECT_ID": "2025-280X", "EPOCH": "2025-12-18T06:00:02.999808", "MEAN_MOTION": 15.58736795, "ECCENTRICITY": 0.00031738, "INCLINATION": 69.9987, "RA_OF_ASC_NODE": 183.2927, "ARG_OF_PERICENTER": 271.1854, "MEAN_ANOMALY": 309.125, "EPHEMERIS_TYPE": 0, "CLASSIFICATION_TYPE": "U", "NORAD_CAT_ID": 66842, "ELEMENT_SET_NO": 999, "REV_AT_EPOCH": 378, "BSTAR": -0.02937698, "MEAN_MOTION_DOT": -0.01996173, "MEAN_MOTION_DDOT": 0}, "tle": {"line1": "1 66842U 25280X   25352.25003472 -.01996173  00000+0 -29377-1 0  9999", "line2": "2 66842  69.9987 183.2927 0003173 271.1854 309.1250 15.58736795  3784"}}, "geometry": {"type": "Point", "coordinates": [-49.97603924237646, 65.1638422210037]}}, {"type": "Feature", "properties": {"norad_id": 66843, "name": "STARLINK-35997", "group": "last-30-days", "lat": 62.77162887969032, "lon": -43.13825812426458, "alt_km": 392.77122937341755, "timestamp": "2025-12-18T17:50:13.700851+00:00", "meta": {"OBJECT_NAME": "STARLINK-35997", "OBJECT_ID": "2025-280Y", "EPOCH": "2025-12-18T06:00:02.999808", "MEAN_MOTION": 15.58737362, "ECCENTRICITY": 0.00031578, "INCLINATION": 69.9987, "RA_OF_ASC_NODE": 183.2873, "ARG_OF_PERICENTER": 269.7101, "MEAN_ANOMALY": 314.4321, "EPHEMERIS_TYPE": 0, "CLASSIFICATION_TYPE": "U", "NORAD_CAT_ID": 66843, "ELEMENT_SET_NO": 999, "REV_AT_EPOCH": 378, "BSTAR": -0.029384921, "MEAN_MOTION_DOT": -0.0199667, "MEAN_MOTION_DDOT": 0}, "tle": {"line1": "1 66843U 25280Y   25352.25003472 -.01996670  00000+0 -29385-1 0  9991", "line2": "2 66843  69.9987 183.2873 0003157 269.7101 314.4321 15.58737362  3784"}}, "geometry": {"type": "Point", "coordinates": [-43.13825812426458, 62.77162887969032]}}, {"type": "Feature", "properties": {"norad_id": 66844, "name": "STARLINK-36073", "group": "last-30-days", "lat": 64.00760110401465, "lon": -46.41011837665737, "alt_km": 392.6939297287081, "timestamp": "2025-12-18T17:50:13.700863+00:00", "meta": {"OBJECT_NAME": "STARLINK-36073", "OBJECT_ID": "2025-280Z", "EPOCH": "2025-12-18T06:00:02.999808", "MEAN_MOTION": 15.58735348, "ECCENTRICITY": 0.0003163, "INCLINATION": 69.9985, "RA_OF_ASC_NODE": 183.2903, "ARG_OF_PERICENTER": 271.6869, "MEAN_ANOMALY": 310.5407, "EPHEMERIS_TYPE": 0, "CLASSIFICATION_TYPE": "U", "NORAD_CAT_ID": 66844, "ELEMENT_SET_NO": 999, "REV_AT_EPOCH": 378, "BSTAR": -0.029363457, "MEAN_MOTION_DOT": -0.01995261, "MEAN_MOTION_DDOT": 0}, "tle": {"line1": "1 66844U 25280Z   25352.25003472 -.01995261  00000+0 -29363-1 0  9993", "line2": "2 66844  69.9985 183.2903 0003163 271.6869 310.5407 15.58735348  3781"}}, "geometry": {"type": "Point", "coordinates": [-46.41011837665737, 64.00760110401465]}}, {"type": "Feature", "properties": {"norad_id": 66845, "name": "STARLINK-36068", "group": "last-30-days", "lat": 58.67611054454122, "lon": -34.84335066587187, "alt_km": 393.1977404105537, "timestamp": "2025-12-18T17:50:13.700873+00:00", "meta": {"OBJECT_NAME": "STARLINK-36068", "OBJECT_ID": "2025-280AA", "EPOCH": "2025-12-18T06:00:02.999808", "MEAN_MOTION": 15.58737404, "ECCENTRICITY": 0.00031951, "INCLINATION": 69.9995, "RA_OF_ASC_NODE": 183.2806, "ARG_OF_PERICENTER": 271.4744, "MEAN_ANOMALY": 318.416, "EPHEMERIS_TYPE": 0, "CLASSIFICATION_TYPE": "U", "NORAD_CAT_ID": 66845, "ELEMENT_SET_NO": 999, "REV_AT_EPOCH": 378, "BSTAR": -0.029352169, "MEAN_MOTION_DOT": -0.01994752, "MEAN_MOTION_DDOT": 0}, "tle": {"line1": "1 66845U 25280AA  25352.25003472 -.01994752  00000+0 -29352-1 0  9996", "line2": "2 66845  69.9995 183.2806 0003195 271.4744 318.4160 15.58737404  3788"}}, "geometry": {"type": "Point", "coordinates": [-34.84335066587187, 58.67611054454122]}}, {"type": "Feature", "properties": {"norad_id": 66846, "name": "STARLINK-36055", "group": "last-30-days", "lat": 61.46560939578524, "lon": -40.13545256231484, "alt_km": 392.9289203903909, "timestamp": "2025-12-18T17:50:13.700883+00:00", "meta": {"OBJECT_NAME": "STARLINK-36055", "OBJECT_ID": "2025-280AB", "EPOCH": "2025-12-18T06:00:02.999808", "MEAN_MOTION": 15.58738165, "ECCENTRICITY": 0.0003216, "INCLINATION": 69.999, "RA_OF_ASC_NODE": 183.2853, "ARG_OF_PERICENTER": 269.5081, "MEAN_ANOMALY": 316.5513, "EPHEMERIS_TYPE": 0, "CLASSIFICATION_TYPE": "U", "NORAD_CAT_ID": 66846, "ELEMENT_SET_NO": 999, "REV_AT_EPOCH": 378, "BSTAR": -0.029423595, "MEAN_MOTION_DOT": -0.01999079, "MEAN_MOTION_DDOT": 0}, "tle": {"line1": "1 66846U 25280AB  25352.25003472 -.01999079  00000+0 -29424-1 0  9994", "line2": "2 66846  69.9990 183.2853 0003216 269.5081 316.5513 15.58738165  3788"}}, "geometry": {"type": "Point", "coordinates": [-40.13545256231484, 61.46560939578524]}}]}